      2.10          N: GNSS NAV DATA                        RINEX VERSION / TYPE
fic2rin                                 06/26/2018 00:03:08 PGM / RUN BY / DATE
                                                            END OF HEADER
15 18  6 26  0  0  0.0-3.519584424794e-04 6.821210263297e-13 0.000000000000e+00
    8.100000000000e+01-2.737500000000e+01 5.495586056075e-09-1.110971111515e+00
   -1.426786184311e-06 1.032693847083e-02 6.644055247307e-06 5.153756561279e+03
    1.728000000000e+05 2.756714820862e-07-1.243757154404e+00 3.911554813385e-08
    9.278246813593e-01 2.333437500000e+02 6.821911903099e-01-8.422493687812e-09
   -6.146684605515e-10 1.000000000000e+00 2.007000000000e+03 0.000000000000e+00
    2.400000000000e+00 0.000000000000e+00-1.117587089539e-08 8.100000000000e+01
    1.656060000000e+05 4.000000000000e+00
17 18  6 26  0  0  0.0-8.454127237201e-05 3.865352482535e-12 0.000000000000e+00
    4.500000000000e+01-1.094375000000e+02 4.131957826914e-09-3.089062881697e-01
   -5.802139639854e-06 1.236932422034e-02 5.524605512619e-06 5.153579757690e+03
    1.728000000000e+05-1.229345798492e-07 2.032529141900e+00 1.266598701477e-07
    9.827571689236e-01 2.890937500000e+02-1.778600671274e+00-8.207484731826e-09
   -1.560779298437e-10 1.000000000000e+00 2.007000000000e+03 0.000000000000e+00
    2.400000000000e+00 0.000000000000e+00-1.117587089539e-08 4.500000000000e+01
    1.656060000000e+05 4.000000000000e+00
12 18  6 26  0  0  0.0 3.250292502344e-04-2.501110429876e-12 0.000000000000e+00
    5.700000000000e+01 6.662500000000e+01 3.971236846526e-09 2.612358255756e+00
    3.358349204063e-06 7.172710611485e-03 1.786276698112e-06 5.153569303513e+03
    1.728000000000e+05 5.587935447693e-09 9.979853503014e-01-5.774199962616e-08
    9.862696396207e-01 3.575000000000e+02 9.994544404320e-01-7.992475775840e-09
    2.639395655709e-10 1.000000000000e+00 2.007000000000e+03 0.000000000000e+00
    2.400000000000e+00 0.000000000000e+00-1.257285475731e-08 5.700000000000e+01
    1.656060000000e+05 4.000000000000e+00
13 18  6 26  0  0  0.0-9.312527254224e-05 3.410605131648e-13 0.000000000000e+00
    1.340000000000e+02-1.806250000000e+01 4.416255383335e-09-1.561264129603e+00
   -1.085922122002e-06 3.306979429908e-03 8.752569556236e-06 5.153659229279e+03
    1.728000000000e+05 1.303851604462e-08-1.040098828017e+00 7.823109626770e-08
    9.681382431867e-01 2.137500000000e+02 1.548953763204e+00-7.848541208959e-09
   -7.411022984569e-10 1.000000000000e+00 2.007000000000e+03 0.000000000000e+00
    3.400000000000e+00 0.000000000000e+00-1.117587089539e-08 1.340000000000e+02
    1.656060000000e+05 4.000000000000e+00
18 18  6 26  0  0  0.0 2.610497176647e-05 4.547473508865e-12 0.000000000000e+00
    9.400000000000e+01-5.553125000000e+01 4.525188492264e-09-2.671590217130e+00
   -2.998858690262e-06 1.468865713105e-02 1.069717109203e-05 5.153651351929e+03
    1.728000000000e+05 2.104789018631e-07 2.986673416490e+00-1.303851604462e-08
    9.504180891169e-01 1.630312500000e+02 1.315017209208e+00-7.675676865608e-09
    4.350181202508e-10 1.000000000000e+00 2.007000000000e+03 0.000000000000e+00
    3.400000000000e+00 0.000000000000e+00-6.984919309616e-09 9.400000000000e+01
    1.656060000000e+05 4.000000000000e+00
10 18  6 26  0  0  0.0 1.886924728751e-04 3.410605131648e-13 0.000000000000e+00
    7.500000000000e+01 1.659375000000e+01 4.977707341491e-09 1.789519353464e+00
    9.387731552124e-07 3.593992092647e-03 5.885958671570e-06 5.153659729004e+03
    1.728000000000e+05-6.146728992462e-08-2.209756633302e+00 1.545995473862e-07
    9.610318494397e-01 2.680000000000e+02-2.750387418984e+00-8.200698734876e-09
    3.085842823454e-10 1.000000000000e+00 2.007000000000e+03 0.000000000000e+00
    2.400000000000e+00 0.000000000000e+00 1.862645149231e-09 7.500000000000e+01
    1.656060000000e+05 4.000000000000e+00
 9 18  6 26  0  0  0.0 5.144607275724e-04-2.273736754432e-13 0.000000000000e+00
    8.800000000000e+01-1.850000000000e+01 4.858773816004e-09-2.466257664388e-02
   -1.005828380585e-06 8.899301756173e-04 7.580965757370e-06 5.153593662262e+03
    1.728000000000e+05 2.048909664154e-08-1.172265804936e+00 3.166496753693e-08
    9.523268651279e-01 2.282500000000e+02 1.849487325016e+00-8.096408676491e-09
   -6.007393089178e-10 1.000000000000e+00 2.007000000000e+03 0.000000000000e+00
    2.400000000000e+00 0.000000000000e+00 9.313225746155e-10 8.800000000000e+01
    1.656060000000e+05 4.000000000000e+00
31 18  6 26  0  0  0.0 1.120502129197e-04-2.614797267597e-12 0.000000000000e+00
    8.100000000000e+01 9.003125000000e+01 4.055883229531e-09 3.013550615576e+00
    4.611909389496e-06 8.770635002293e-03 1.015700399876e-05 5.153691846848e+03
    1.728000000000e+05-7.450580596924e-08-8.229638925494e-02 3.166496753693e-08
    9.633658869589e-01 1.869687500000e+02-1.263995789241e-01-7.660319083038e-09
   -1.321483616526e-10 1.000000000000e+00 2.007000000000e+03 0.000000000000e+00
    2.400000000000e+00 0.000000000000e+00-1.350417733192e-08 8.100000000000e+01
    1.656060000000e+05 4.000000000000e+00
30 18  6 26  0  0  0.0 5.813548341393e-05-4.547473508865e-12 0.000000000000e+00
    8.400000000000e+01 1.093437500000e+02 4.476972198148e-09-3.032093839542e+00
    5.587935447693e-06 3.516214550473e-03 1.025758683681e-05 5.153732872009e+03
    1.728000000000e+05-2.607703208923e-08-6.177162958489e-02-1.303851604462e-08
    9.443117798160e-01 1.730312500000e+02-3.046135471472e+00-7.947831059065e-09
   -7.571743964957e-11 1.000000000000e+00 2.007000000000e+03 0.000000000000e+00
    2.400000000000e+00 0.000000000000e+00 3.725290298462e-09 8.400000000000e+01
    1.656060000000e+05 4.000000000000e+00
29 18  6 26  0  0  0.0 4.259250126779e-04-6.707523425575e-12 0.000000000000e+00
    5.600000000000e+01-1.051875000000e+02 4.020881771580e-09 6.150926341971e-01
   -5.686655640602e-06 8.330321870744e-04 4.753470420837e-06 5.153674871445e+03
    1.728000000000e+05 5.587935447693e-09 2.043176149962e+00-1.862645149231e-08
    9.840588119880e-01 2.984062500000e+02 1.301820061368e+00-7.935687696103e-09
   -1.553636143753e-10 1.000000000000e+00 2.007000000000e+03 0.000000000000e+00
    2.400000000000e+00 0.000000000000e+00-1.024454832077e-08 5.600000000000e+01
    1.656060000000e+05 4.000000000000e+00
27 18  6 26  0  0  0.0 3.642844967544e-04-1.818989403546e-12 0.000000000000e+00
    8.000000000000e+01-9.878125000000e+01 4.219461471793e-09-2.382118998989e-01
   -5.034729838371e-06 5.997257307172e-03 4.515051841736e-06 5.153687295914e+03
    1.728000000000e+05 5.774199962616e-08 1.978283668461e+00 4.284083843231e-08
    9.774340825557e-01 3.019687500000e+02 4.453303961985e-01-8.121052560151e-09
   -1.532206679701e-10 1.000000000000e+00 2.007000000000e+03 0.000000000000e+00
    2.400000000000e+00 0.000000000000e+00 1.396983861923e-09 8.000000000000e+01
    1.656060000000e+05 4.000000000000e+00
20 18  6 26  0  0  0.0 5.112597718835e-04 6.821210263297e-13 0.000000000000e+00
    7.600000000000e+01 2.503125000000e+01 5.607019269144e-09-2.519475946972e+00
    1.408159732819e-06 3.942990675569e-03 5.947425961494e-06 5.153660303116e+03
    1.728000000000e+05-5.215406417847e-08-2.316798635894e+00 7.264316082001e-08
    9.284121848712e-01 2.475312500000e+02 2.037085388555e+00-8.418922110470e-09
    4.268034923643e-10 1.000000000000e+00 2.007000000000e+03 0.000000000000e+00
    2.400000000000e+00 0.000000000000e+00-8.381903171539e-09 7.600000000000e+01
    1.656060000000e+05 4.000000000000e+00
28 18  6 26  0  0  0.0 7.265424355865e-04 2.842170943040e-12 0.000000000000e+00
    9.300000000000e+01 5.325000000000e+01 4.217675683122e-09 6.635991121952e-01
    2.661719918251e-06 1.946988690179e-02 2.188608050346e-06 5.153680524826e+03
    1.728000000000e+05-2.421438694000e-07 1.021118587996e+00-1.695007085800e-07
    9.855522158171e-01 3.519375000000e+02-1.518091464089e+00-8.526426588463e-09
    1.307197307158e-10 1.000000000000e+00 2.007000000000e+03 0.000000000000e+00
    2.400000000000e+00 0.000000000000e+00-1.117587089539e-08 9.300000000000e+01
    1.656060000000e+05 4.000000000000e+00
18 18  6 25 23 59 44.0 2.610869705677e-05 4.661160346586e-12 0.000000000000e+00
    0.000000000000e+00-5.553125000000e+01 4.525188492264e-09-2.673924251724e+00
   -2.998858690262e-06 1.468865305651e-02 1.069717109203e-05 5.153651365280e+03
    1.727840000000e+05 2.104789018631e-07 2.986673530598e+00-1.303851604462e-08
    9.504180978944e-01 1.630312500000e+02 1.315017365740e+00-7.675676865608e-09
    4.350181202508e-10 1.000000000000e+00 2.007000000000e+03 0.000000000000e+00
    2.400000000000e+00 0.000000000000e+00-6.984919309616e-09 0.000000000000e+00
    1.673760000000e+05 4.000000000000e+00
 2 18  6 25 23 59 44.0 7.539475336671e-05-1.091393642128e-11 0.000000000000e+00
    7.000000000000e+00-6.284375000000e+01 4.474472094009e-09-2.084793215686e+00
   -3.129243850708e-06 1.790713856462e-02 1.084059476852e-05 5.153768642426e+03
    1.727840000000e+05 2.700835466385e-07 2.972725118733e+00 8.568167686462e-08
    9.510967499801e-01 1.586875000000e+02-1.850139824516e+00-7.602102372364e-09
    4.764484174176e-10 1.000000000000e+00 2.007000000000e+03 0.000000000000e+00
    2.400000000000e+00 0.000000000000e+00-2.048909664154e-08 7.000000000000e+00
    1.700460000000e+05 4.000000000000e+00
13 18  6 25 23 59 44.0-9.312760084867e-05 3.410605131648e-13 0.000000000000e+00
    9.000000000000e+00-1.806250000000e+01 4.416255383335e-09-1.563596799294e+00
   -1.085922122002e-06 3.306983737275e-03 8.752569556236e-06 5.153659225464e+03
    1.727840000000e+05 1.303851604462e-08-1.040098705132e+00 7.823109626770e-08
    9.681382695192e-01 2.137500000000e+02 1.548952727458e+00-7.848541208959e-09
   -7.411022984569e-10 1.000000000000e+00 2.007000000000e+03 0.000000000000e+00
    2.400000000000e+00 0.000000000000e+00-1.117587089539e-08 9.000000000000e+00
    1.712160000000e+05 4.000000000000e+00
